[{"OBJECT_NAME":"STARLINK-2162","OBJECT_ID":"2021-017AC","EPOCH":"2026-03-10T00:00:02.999808","MEAN_MOTION":15.43772668,"ECCENTRICITY":0.00014572,"INCLINATION":53.1597,"RA_OF_ASC_NODE":191.6708,"ARG_OF_PERICENTER":88.7385,"MEAN_ANOMALY":324.0678,"EPHEMERIS_TYPE":0,"CLASSIFICATION_TYPE":"U","NORAD_CAT_ID":47748,"ELEMENT_SET_NO":999,"REV_AT_EPOCH":576,"BSTAR":0.023342841,"MEAN_MOTION_DOT":0.0117885,"MEAN_MOTION_DDOT":0},{"OBJECT_NAME":"FLOCK 4Q-1","OBJECT_ID":"2023-174Q","EPOCH":"2026-03-09T17:06:04.430592","MEAN_MOTION":15.63590524,"ECCENTRICITY":0.00067833,"INCLINATION":97.3805,"RA_OF_ASC_NODE":157.9237,"ARG_OF_PERICENTER":161.7688,"MEAN_ANOMALY":198.3815,"EPHEMERIS_TYPE":0,"CLASSIFICATION_TYPE":"U","NORAD_CAT_ID":58270,"ELEMENT_SET_NO":999,"REV_AT_EPOCH":13037,"BSTAR":0.00092764975,"MEAN_MOTION_DOT":0.00086779,"MEAN_MOTION_DDOT":0}]
